ONEWEB-0588             
1 55153U 23004P   25029.51501641  .00000066  00000+0  13440-3 0  9995
2 55153  87.9068  75.6974 0002176  86.4377 273.7004 13.18685033103317
ONEWEB-0598             
1 55154U 23004Q   25029.67786771 -.00000062  00000+0 -21010-3 0  9992
2 55154  87.8901 121.4519 0002465 107.9251 252.2146 13.11419594 99907
ONEWEB-0599             
1 55155U 23004R   25029.49216418  .00000076  00000+0  16362-3 0  9996
2 55155  87.9086 106.2186 0002022 107.7443 252.3910 13.17646403101152
ONEWEB-0614             
1 55156U 23004S   25029.67278381 -.00001153  00000+0 -32911-2 0  9990
2 55156  87.8888 121.4578 0001369  89.5510 270.5775 13.11407465 99841
ONEWEB-0616             
1 55157U 23004T   25030.14183556  .00000189  00000+0  45274-3 0  9997
2 55157  87.9081 106.0869 0002047 136.6665 223.4628 13.17648922101455
ONEWEB-0617             
1 55158U 23004U   25030.19498244 -.00000485  00000+0 -14032-2 0  9994
2 55158  87.8896 121.3426 0001786  92.3735 267.7597 13.11417413 99942
ONEWEB-0618             
1 55159U 23004V   25029.70920868  .00000592  00000+0  23325-3 0  9995
2 55159  86.9083  12.9321 0010851 270.4393  89.5557 14.27572979107653
ONEWEB-0619             
1 55160U 23004W   25029.49047548  .00000047  00000+0  87201-4 0  9997
2 55160  87.9082 106.1941 0001377 101.5820 258.5466 13.17649009101266
